<kml>
 <Document>
  <Style id="yellow">
   <LineStyle>
   <color>ff00ffff</color>
   <width>1</width>
   </LineStyle>
  </Style>
  <Style id="red">
   <LineStyle>
   <color>ffff0000</color>
   <width>2</width>
   </LineStyle>
  </Style>
  <Style id="green">
   <LineStyle>
   <color>ff00ff00</color>
   <width>1</width>
   </LineStyle>
  </Style>
  <Placemark>
  <styleUrl>#yellow</styleUrl>
   <MultiGeometry>
    <LineString>
     <coordinates>
145.03438341,-36.66869097,138.51
145.03435255,-36.66869046,138.56
145.03428399,-36.66868933,152.15
145.03422471,-36.66868835,157.49
145.03421185,-36.66868814,156.60
145.03420089,-36.66868796,152.62
145.03419608,-36.66868788,138.71
145.03408245,-36.66868600,138.78
145.03392431,-36.66868339,138.98
145.03391290,-36.66868320,156.76
145.03380822,-36.66868147,139.14
145.03378988,-36.66868117,156.07
145.03376729,-36.66868080,139.23
145.03372210,-36.66868005,139.29
145.03370208,-36.66867972,159.35
145.03370175,-36.66867971,139.38
145.03360109,-36.66867805,154.05
145.03356027,-36.66867738,139.51
145.03353388,-36.66867694,139.62
145.03344977,-36.66867555,142.35
145.03341432,-36.66867497,139.76
145.03337372,-36.66867429,139.88
145.03329890,-36.66867306,140.03
145.03324309,-36.66867214,140.16
145.03320160,-36.66867145,156.18
145.03318975,-36.66867126,140.24
145.03315821,-36.66867073,157.23
145.03302422,-36.66866852,140.53
145.03302377,-36.66866851,158.16
145.03290880,-36.66866661,140.76
145.03281486,-36.66866506,140.96
145.03278097,-36.66866450,154.05
145.03275815,-36.66866412,157.10
145.03273758,-36.66866378,161.18
145.03273031,-36.66866366,162.10
145.03255483,-36.66866076,141.34
145.03249533,-36.66865978,141.43
145.03245809,-36.66865917,156.05
145.03241402,-36.66865844,141.52
145.03239076,-36.66865805,141.56
145.03238763,-36.66865800,141.56
145.03238461,-36.66865795,141.55
145.03238137,-36.66865790,141.57
145.03237835,-36.66865785,141.56
145.03237521,-36.66865780,141.60
145.03236895,-36.66865769,141.58
145.03236593,-36.66865764,141.57
145.03236280,-36.66865759,141.59
145.03235967,-36.66865754,141.57
145.03235654,-36.66865749,141.59
145.03235341,-36.66865744,141.57
145.03235039,-36.66865739,141.58
145.03230710,-36.66865667,159.31
145.03228351,-36.66865628,141.61
145.03219482,-36.66865481,141.63
145.03218386,-36.66865463,152.84
145.03215109,-36.66865409,154.86
145.03211552,-36.66865350,141.62
145.03206486,-36.66865267,141.61
145.03201666,-36.66865187,154.55
145.03201431,-36.66865183,154.84
145.03198076,-36.66865128,156.09
145.03185136,-36.66864914,141.50
145.03182653,-36.66864873,141.41
145.03177721,-36.66864791,141.44
145.03171815,-36.66864693,141.31
145.03159849,-36.66864496,156.51
145.03157713,-36.66864460,151.80
145.03154055,-36.66864400,152.62
145.03152087,-36.66864367,141.10
145.03149615,-36.66864326,146.59
145.03142290,-36.66864205,140.93
145.03138353,-36.66864140,140.99
145.03138319,-36.66864140,155.58
145.03137626,-36.66864128,148.79
145.03137045,-36.66864119,152.78
145.03135568,-36.66864094,151.88
145.03132135,-36.66864037,140.79
145.03125838,-36.66863933,140.65
145.03120873,-36.66863851,140.58
145.03115963,-36.66863770,140.48
145.03109051,-36.66863656,140.36
145.03107989,-36.66863638,156.65
145.03103437,-36.66863563,155.85
145.03094501,-36.66863415,139.98
145.03089703,-36.66863336,153.57
145.03089311,-36.66863329,156.09
145.03087041,-36.66863292,153.51
145.03086292,-36.66863279,146.86
145.03084580,-36.66863251,139.85
145.03077792,-36.66863139,139.70
145.03075197,-36.66863096,139.66
145.03070835,-36.66863024,159.86
145.03070466,-36.66863017,159.81
145.03068420,-36.66862984,139.66
145.03067983,-36.66862976,139.66
145.03064293,-36.66862915,150.48
145.03060926,-36.66862860,139.63
145.03059506,-36.66862836,139.63
145.03059126,-36.66862830,139.60
145.03058779,-36.66862824,139.62
145.03058399,-36.66862818,139.62
145.03048781,-36.66862659,139.70
145.03048322,-36.66862651,146.99
145.03046857,-36.66862627,155.78
145.03046130,-36.66862615,155.78
145.03043882,-36.66862578,139.66
145.03041645,-36.66862541,154.94
145.03039766,-36.66862510,145.13
145.03036970,-36.66862463,139.68
145.03029656,-36.66862342,139.75
145.03025630,-36.66862276,153.23
145.03024332,-36.66862254,139.72
145.03022845,-36.66862230,141.12
145.03022454,-36.66862223,140.53
145.03018371,-36.66862156,139.80
145.03012556,-36.66862059,140.55
145.03000902,-36.66861867,139.90
145.02999929,-36.66861850,149.97
145.02999359,-36.66861841,150.53
145.02997334,-36.66861807,158.63
145.02996887,-36.66861800,139.85
145.02996686,-36.66861797,139.86
145.02996261,-36.66861790,139.83
145.02995064,-36.66861770,156.58
145.02993308,-36.66861741,155.14
145.02993051,-36.66861737,155.44
145.02990836,-36.66861700,162.40
145.02989170,-36.66861672,139.85
145.02986106,-36.66861622,157.46
145.02985983,-36.66861620,159.98
145.02985614,-36.66861613,164.74
145.02985312,-36.66861609,151.02
145.02985032,-36.66861604,164.71
145.02979049,-36.66861505,159.92
145.02978758,-36.66861500,139.90
145.02978433,-36.66861495,139.91
145.02977673,-36.66861482,139.87
145.02977427,-36.66861478,139.83
145.02963346,-36.66861245,151.70
145.02962507,-36.66861231,155.90
145.02960505,-36.66861198,155.61
145.02959354,-36.66861179,154.62
145.02958850,-36.66861171,152.74
145.02956490,-36.66861132,139.90
145.02955786,-36.66861120,139.92
145.02953829,-36.66861087,139.92
145.02948158,-36.66860994,139.93
145.02945944,-36.66860957,139.93
145.02945239,-36.66860945,139.97
145.02944669,-36.66860936,153.23
145.02939524,-36.66860851,140.02
145.02938104,-36.66860827,140.02
145.02937366,-36.66860815,152.12
145.02936494,-36.66860801,140.05
145.02934290,-36.66860764,153.32
145.02931986,-36.66860726,159.71
145.02930443,-36.66860700,140.06
145.02930007,-36.66860693,140.05
145.02928967,-36.66860676,159.20
145.02928497,-36.66860668,159.72
145.02927804,-36.66860657,159.44
145.02925242,-36.66860614,140.11
145.02924806,-36.66860607,140.11
145.02924594,-36.66860604,140.12
145.02924046,-36.66860595,159.47
145.02923207,-36.66860581,159.13
145.02919583,-36.66860521,140.14
145.02919136,-36.66860513,140.16
145.02918141,-36.66860497,158.09
145.02917112,-36.66860480,140.30
145.02916776,-36.66860474,140.33
145.02915870,-36.66860459,140.25
145.02913935,-36.66860427,158.18
145.02912728,-36.66860407,157.40
145.02910536,-36.66860371,155.78
145.02910267,-36.66860366,160.34
145.02909965,-36.66860361,160.17
145.02907214,-36.66860316,159.57
145.02904351,-36.66860268,140.30
145.02898390,-36.66860170,159.32
145.02891143,-36.66860050,140.32
145.02890315,-36.66860036,158.74
145.02889700,-36.66860026,146.35
145.02887642,-36.66859992,140.39
145.02887340,-36.66859987,140.39
145.02884947,-36.66859947,140.38
145.02880853,-36.66859879,148.44
145.02880585,-36.66859875,148.29
145.02875507,-36.66859791,160.05
145.02874747,-36.66859778,140.40
145.02872913,-36.66859748,154.74
145.02872186,-36.66859736,157.80
145.02862389,-36.66859574,140.49
145.02860118,-36.66859536,140.52
145.02859302,-36.66859523,140.51
145.02858977,-36.66859517,140.48
145.02858675,-36.66859512,140.45
145.02858362,-36.66859507,156.91
145.02852357,-36.66859408,140.52
145.02850343,-36.66859374,140.51
145.02846440,-36.66859310,155.82
145.02843421,-36.66859260,151.02
145.02840434,-36.66859210,140.61
145.02840110,-36.66859205,140.61
145.02838623,-36.66859180,140.60
145.02833366,-36.66859093,140.60
145.02827629,-36.66858998,153.91
145.02825739,-36.66858967,159.40
145.02823804,-36.66858935,164.59
145.02820762,-36.66858884,140.74
145.02820303,-36.66858877,140.79
145.02819968,-36.66858871,140.78
145.02812676,-36.66858750,140.71
145.02810898,-36.66858721,159.72
145.02809063,-36.66858691,140.75
145.02802230,-36.66858577,140.77
145.02799635,-36.66858534,140.79
145.02789939,-36.66858374,140.87
145.02789011,-36.66858358,152.98
145.02788675,-36.66858353,152.98
145.02787848,-36.66858339,154.43
145.02785745,-36.66858304,153.04
145.02785331,-36.66858297,140.76
145.02784425,-36.66858282,159.83
145.02781350,-36.66858231,154.37
145.02781260,-36.66858230,158.44
145.02780880,-36.66858224,158.43
145.02780287,-36.66858214,140.80
145.02780030,-36.66858210,140.76
145.02774069,-36.66858111,140.94
145.02773376,-36.66858099,140.87
145.02773286,-36.66858098,154.84
145.02758389,-36.66857851,140.78
145.02755671,-36.66857806,140.95
145.02755291,-36.66857800,140.92
145.02754911,-36.66857793,140.89
145.02743783,-36.66857609,140.86
145.02741635,-36.66857573,162.50
145.02737240,-36.66857501,159.83
145.02735249,-36.66857468,141.02
145.02729959,-36.66857380,158.91
145.02725732,-36.66857310,165.90
145.02716651,-36.66857159,140.88
145.02711193,-36.66857069,140.91
145.02706249,-36.66856987,140.92
145.02705433,-36.66856974,140.95
145.02699785,-36.66856880,158.52
145.02699606,-36.66856877,140.97
145.02690827,-36.66856731,158.16
145.02690189,-36.66856721,162.62
145.02689899,-36.66856716,141.03
145.02682528,-36.66856594,140.99
145.02676746,-36.66856498,141.10
145.02676701,-36.66856497,154.99
145.02672933,-36.66856435,155.26
145.02666524,-36.66856329,141.18
145.02665674,-36.66856315,141.19
145.02656783,-36.66856167,156.14
145.02656391,-36.66856161,145.66
145.02651124,-36.66856073,141.34
145.02648507,-36.66856030,141.42
145.02641987,-36.66855922,143.59
145.02641707,-36.66855917,143.90
145.02640264,-36.66855893,141.46
145.02636137,-36.66855825,141.55
145.02634985,-36.66855806,141.52
145.02630847,-36.66855737,150.57
145.02619384,-36.66855547,141.71
145.02619194,-36.66855544,141.72
145.02604297,-36.66855297,141.71
145.02601747,-36.66855255,141.67
145.02600405,-36.66855233,145.48
145.02599141,-36.66855212,154.74
145.02599029,-36.66855210,153.55
145.02589333,-36.66855049,141.73
145.02579099,-36.66854879,141.84
145.02575006,-36.66854811,141.72
145.02573586,-36.66854788,141.78
145.02568396,-36.66854702,157.70
145.02558543,-36.66854538,141.80
145.02551989,-36.66854430,158.77
145.02551732,-36.66854425,158.70
145.02546364,-36.66854336,141.88
145.02544172,-36.66854300,156.28
145.02542103,-36.66854266,141.88
145.02541096,-36.66854249,152.62
145.02538770,-36.66854210,141.90
145.02530997,-36.66854082,141.96
145.02529197,-36.66854052,141.89
145.02525428,-36.66853989,152.95
145.02519109,-36.66853884,153.30
145.02518292,-36.66853871,153.08
145.02516033,-36.66853833,141.94
145.02508283,-36.66853705,141.76
145.02503753,-36.66853630,159.08
145.02503485,-36.66853625,158.94
145.02502378,-36.66853607,158.49
145.02502064,-36.66853601,158.44
145.02501528,-36.66853593,158.21
145.02501259,-36.66853588,158.06
145.02499738,-36.66853563,141.79
145.02498329,-36.66853540,141.80
145.02487660,-36.66853363,152.56
145.02487559,-36.66853361,141.81
145.02487123,-36.66853354,152.26
145.02484047,-36.66853303,141.82
145.02480424,-36.66853242,153.62
145.02477046,-36.66853186,141.85
145.02472997,-36.66853119,151.17
145.02472561,-36.66853112,141.94
145.02461903,-36.66852935,160.90
145.02460662,-36.66852915,142.13
145.02459935,-36.66852903,151.90
145.02454868,-36.66852819,155.59
145.02454287,-36.66852809,151.35
145.02452106,-36.66852773,142.10
145.02445888,-36.66852669,142.13
145.02440810,-36.66852585,142.17
145.02431225,-36.66852426,142.25
145.02430745,-36.66852418,150.03
145.02422491,-36.66852281,142.43
145.02411173,-36.66852093,142.60
145.02408679,-36.66852052,142.62
145.02403691,-36.66851969,155.04
145.02401364,-36.66851931,164.77
145.02399989,-36.66851908,142.75
145.02391869,-36.66851782,142.90
145.02391567,-36.66851786,142.93
145.02390671,-36.66851807,142.91
145.02390078,-36.66851824,142.95
145.02390063,-36.66851950,155.56
145.02389991,-36.66854338,142.96
145.02389799,-36.66861419,152.97
145.02389309,-36.66880573,143.21
145.02388993,-36.66892916,154.73
145.02388959,-36.66894250,159.32
145.02388940,-36.66895007,143.42
145.02388838,-36.66898971,155.86
145.02388700,-36.66904368,143.58
145.02388617,-36.66907611,155.06
145.02388575,-36.66909260,161.28
145.02388451,-36.66914125,143.61
145.02388247,-36.66922089,143.71
145.02388202,-36.66923864,143.74
145.02388160,-36.66925495,157.39
145.02387916,-36.66935045,143.84
145.02387686,-36.66944001,156.30
145.02387333,-36.66957839,144.11
145.02386997,-36.66970975,144.33
145.02386716,-36.66981958,144.43
145.02386662,-36.66984039,144.45
145.02386477,-36.66991301,144.54
145.02386401,-36.66994238,160.52
145.02386285,-36.66998779,144.65
145.02386231,-36.67000896,161.19
145.02386143,-36.67004338,154.60
145.02386068,-36.67007284,163.75
145.02386053,-36.67007842,158.54
145.02385741,-36.67020041,144.90
145.02385628,-36.67024474,144.86
145.02385549,-36.67027555,150.64
145.02385242,-36.67039574,144.97
145.02385235,-36.67039835,156.87
145.02385192,-36.67041520,145.00
145.02385090,-36.67045511,145.00
145.02385035,-36.67047673,145.02
145.02384891,-36.67053277,145.06
145.02384600,-36.67064647,145.12
145.02384552,-36.67066548,157.15
145.02384544,-36.67066837,156.59
145.02384543,-36.67066891,145.19
145.02384441,-36.67070873,161.24
145.02384320,-36.67075621,157.74
145.02384306,-36.67076162,159.73
145.02384300,-36.67076387,145.19
145.02384243,-36.67078630,145.25
145.02384242,-36.67078666,162.58
145.02383596,-36.67103911,145.26
145.02383524,-36.67106713,163.94
145.02383512,-36.67107200,157.83
145.02383508,-36.67107353,163.99
145.02383340,-36.67113912,161.91
145.02383323,-36.67114587,161.98
145.02383300,-36.67115488,161.63
145.02383049,-36.67125291,145.30
145.02382633,-36.67141544,145.17
145.02382589,-36.67143274,162.07
145.02382440,-36.67149103,145.06
145.02382401,-36.67150608,159.75
145.02382399,-36.67150689,160.80
145.02382375,-36.67151626,157.05
145.02382358,-36.67152292,145.14
145.02382242,-36.67156860,145.07
145.02381810,-36.67173726,154.40
145.02381616,-36.67181303,144.96
145.02381567,-36.67183231,145.06
145.02381437,-36.67188322,144.98
145.02381409,-36.67189403,144.97
145.02381234,-36.67196259,145.11
145.02381229,-36.67196421,148.15
145.02381206,-36.67197349,145.13
145.02381137,-36.67200025,145.03
145.02381123,-36.67200584,158.86
145.02381095,-36.67201674,159.65
145.02381027,-36.67204332,160.66
145.02381019,-36.67204665,160.03
145.02381014,-36.67204827,159.73
145.02381006,-36.67205160,159.85
145.02380996,-36.67205539,157.55
145.02380983,-36.67206070,145.16
145.02380978,-36.67206242,159.92
145.02380947,-36.67207476,145.13
145.02380873,-36.67210359,145.19
145.02380821,-36.67212395,145.16
145.02380771,-36.67214359,162.23
145.02380761,-36.67214729,145.16
145.02380729,-36.67215981,160.67
145.02380728,-36.67216035,145.16
145.02380682,-36.67217819,145.18
145.02380612,-36.67220567,145.17
145.02380474,-36.67225973,145.25
145.02380440,-36.67227270,145.26
145.02380346,-36.67230946,145.26
145.02380282,-36.67233459,145.27
145.02380231,-36.67235442,160.38
145.02380195,-36.67236847,145.13
145.02380168,-36.67237919,145.22
145.02380113,-36.67240045,147.21
145.02379910,-36.67247983,156.72
145.02379910,-36.67248019,156.81
145.02379670,-36.67257398,145.17
145.02379627,-36.67259065,145.39
145.02379604,-36.67259948,145.64
145.02379409,-36.67267597,146.22
145.02379322,-36.67270984,145.24
145.02379303,-36.67271723,145.21
145.02379287,-36.67272336,145.26
145.02379201,-36.67275696,152.91
145.02379186,-36.67276291,145.23
145.02379128,-36.67278579,158.28
145.02379044,-36.67281868,162.33
145.02378991,-36.67283922,145.09
145.02378972,-36.67284661,145.08
145.02378952,-36.67285463,145.68
145.02378923,-36.67286598,145.16
145.02378837,-36.67289931,144.98
145.02378820,-36.67290607,159.70
145.02378690,-36.67295679,145.04
145.02378667,-36.67296571,163.45
145.02378653,-36.67297148,145.02
145.02378607,-36.67298914,159.81
145.02378603,-36.67299103,144.99
145.02378595,-36.67299382,160.92
145.02378564,-36.67300608,163.44
145.02378557,-36.67300869,163.57
145.02378525,-36.67302139,155.65
145.02378522,-36.67302256,144.94
145.02378512,-36.67302644,144.92
145.02378496,-36.67303283,144.93
145.02378459,-36.67304734,144.94
145.02378336,-36.67309527,144.78
145.02378284,-36.67311545,144.69
145.02378167,-36.67316122,144.70
145.02378023,-36.67321771,144.58
145.02377881,-36.67327321,144.41
145.02377854,-36.67328357,149.51
145.02377692,-36.67334691,144.37
145.02377651,-36.67336294,145.12
145.02377650,-36.67336321,160.13
145.02377626,-36.67337277,144.36
145.02377617,-36.67337637,156.67
145.02377615,-36.67337691,145.42
145.02377599,-36.67338349,157.23
145.02377544,-36.67340484,158.93
145.02377541,-36.67340583,161.93
145.02377518,-36.67341502,144.12
145.02377510,-36.67341799,144.11
145.02377450,-36.67344160,160.98
145.02377426,-36.67345097,160.08
145.02377419,-36.67345358,156.24
145.02377392,-36.67346412,154.21
145.02377372,-36.67347214,144.01
145.02377356,-36.67347818,149.06
145.02377338,-36.67348547,148.29
145.02377302,-36.67349926,151.28
145.02377092,-36.67358152,143.71
145.02377082,-36.67358557,143.67
145.02376925,-36.67364693,148.57
145.02376911,-36.67365215,143.63
145.02376826,-36.67368558,161.01
145.02376793,-36.67369855,159.60
145.02376625,-36.67376405,143.39
145.02376291,-36.67389469,143.10
145.02376231,-36.67391784,161.45
145.02376095,-36.67397109,163.37
145.02376089,-36.67397352,161.43
145.02376049,-36.67398902,142.99
145.02375834,-36.67407308,142.70
145.02375563,-36.67417930,142.59
145.02375562,-36.67417957,160.58
145.02375159,-36.67433706,142.71
145.02375061,-36.67437535,150.75
145.02375025,-36.67438922,142.27
145.02374975,-36.67440913,142.29
145.02374934,-36.67442517,142.24
145.02374839,-36.67446211,142.28
145.02374772,-36.67448842,142.24
145.02374762,-36.67449202,157.90
145.02374560,-36.67457113,159.62
145.02374518,-36.67458770,156.90
145.02374508,-36.67459131,157.18
145.02374342,-36.67465627,158.63
145.02374335,-36.67465897,142.12
145.02374324,-36.67466356,159.69
145.02374188,-36.67471654,152.11
145.02374016,-36.67478375,142.05
145.02373555,-36.67496394,141.92
145.02373248,-36.67508404,141.76
145.02373218,-36.67509548,141.75
145.02373127,-36.67513125,141.74
145.02372967,-36.67519396,141.76
145.02372870,-36.67523171,156.64
145.02372683,-36.67530477,141.70
145.02372649,-36.67531820,141.71
145.02372534,-36.67536315,157.11
145.02372527,-36.67536559,156.48
145.02372502,-36.67537559,157.00
145.02372469,-36.67538847,160.95
145.02372439,-36.67540000,141.63
145.02372357,-36.67543217,141.64
145.02372238,-36.67547875,141.63
145.02372028,-36.67556091,141.60
145.02371850,-36.67563038,155.99
145.02371757,-36.67566687,159.68
145.02371678,-36.67569768,160.70
145.02371627,-36.67571750,141.59
145.02371563,-36.67574255,161.05
145.02371399,-36.67580669,141.50
145.02371278,-36.67585408,141.47
145.02371102,-36.67592274,141.49
145.02371091,-36.67592688,155.71
145.02371054,-36.67594130,158.61
145.02371009,-36.67595914,141.45
145.02370989,-36.67596679,156.91
145.02370985,-36.67596842,141.47
145.02370899,-36.67600193,141.46
145.02370882,-36.67600869,160.70
145.02370860,-36.67601707,141.46
145.02370348,-36.67621744,141.30
145.02370333,-36.67622303,141.32
145.02370279,-36.67624438,141.29
145.02370000,-36.67635339,141.17
145.02369953,-36.67637177,141.19
145.02369827,-36.67642115,141.15
145.02369819,-36.67642421,141.13
145.02369631,-36.67649764,141.08
145.02369163,-36.67668044,157.00
145.02369122,-36.67669648,156.43
145.02368994,-36.67674648,151.38
145.02368992,-36.67674738,140.90
145.02368961,-36.67675927,140.88
145.02368828,-36.67681144,140.82
145.02368509,-36.67693622,140.68
145.02368133,-36.67708290,154.30
145.02367998,-36.67713578,140.46
145.02367590,-36.67729525,140.29
145.02367082,-36.67749391,152.19
145.02367001,-36.67752545,157.74
145.02367054,-36.67752672,139.93
145.02403998,-36.67753303,151.91
145.02408494,-36.67753378,139.64
145.02408796,-36.67753383,139.66
145.02409087,-36.67753387,139.67
145.02413427,-36.67753459,152.91
145.02424098,-36.67753637,146.76
145.02426659,-36.67753679,139.57
145.02434276,-36.67753805,157.73
145.02444298,-36.67753972,139.47
145.02444589,-36.67753977,139.38
145.02449779,-36.67754063,157.17
145.02452486,-36.67754108,139.41
145.02458459,-36.67754207,139.38
145.02474442,-36.67754472,139.26
145.02488256,-36.67754701,154.02
145.02488569,-36.67754706,154.03
145.02488883,-36.67754712,148.81
145.02491567,-36.67754756,139.07
145.02491914,-36.67754762,139.07
145.02492249,-36.67754767,139.09
145.02492574,-36.67754773,139.11
145.02494978,-36.67754813,139.06
145.02495280,-36.67754818,139.05
145.02501164,-36.67754915,154.28
145.02517181,-36.67755181,138.93
145.02527080,-36.67755345,138.86
145.02527449,-36.67755351,138.88
145.02544775,-36.67755639,153.47
145.02545055,-36.67755644,153.41
145.02548220,-36.67755696,151.24
145.02558757,-36.67755871,138.72
145.02559092,-36.67755876,138.70
145.02559528,-36.67755884,149.20
145.02559830,-36.67755889,145.95
145.02560725,-36.67755903,153.12
145.02570635,-36.67756068,151.34
145.02571362,-36.67756080,155.28
145.02571978,-36.67756090,155.05
145.02572358,-36.67756096,155.16
145.02573342,-36.67756113,150.86
145.02575009,-36.67756140,138.56
145.02586172,-36.67756325,138.43
145.02597704,-36.67756517,142.04
145.02598330,-36.67756527,142.08
145.02601797,-36.67756585,138.27
145.02603274,-36.67756609,152.04
145.02605231,-36.67756642,151.53
145.02613754,-36.67756783,138.17
145.02616070,-36.67756821,147.19
145.02616774,-36.67756833,150.32
145.02619034,-36.67756870,146.57
145.02619918,-36.67756885,138.08
145.02620231,-36.67756890,138.09
145.02621360,-36.67756909,153.52
145.02629984,-36.67757052,151.47
145.02630700,-36.67757064,138.21
145.02631405,-36.67757076,138.04
145.02639995,-36.67757218,153.23
145.02642489,-36.67757259,137.89
145.02642814,-36.67757265,137.89
145.02643116,-36.67757270,137.89
145.02643418,-36.67757275,137.88
145.02643731,-36.67757280,137.87
145.02646673,-36.67757329,156.91
145.02646908,-36.67757333,151.36
145.02647400,-36.67757341,156.71
145.02648171,-36.67757353,156.44
145.02653406,-36.67757440,137.88
145.02660531,-36.67757558,145.87
145.02661829,-36.67757580,147.12
145.02662164,-36.67757585,142.03
145.02666292,-36.67757654,137.84
145.02666594,-36.67757659,157.91
145.02666605,-36.67757659,137.82
145.02668048,-36.67757683,157.59
145.02668182,-36.67757685,157.68
145.02668920,-36.67757697,157.43
145.02668987,-36.67757699,157.43
145.02671772,-36.67757745,156.63
145.02674535,-36.67757791,139.54
145.02676806,-36.67757828,152.72
145.02683629,-36.67757941,137.87
145.02683942,-36.67757946,137.89
145.02684255,-36.67757952,137.85
145.02688886,-36.67758028,137.89
145.02699926,-36.67758211,137.91
145.02703102,-36.67758264,152.66
145.02704187,-36.67758282,137.90
145.02704489,-36.67758287,137.89
145.02708147,-36.67758348,150.42
145.02709701,-36.67758373,137.89
145.02714254,-36.67758449,152.99
145.02714903,-36.67758460,152.81
145.02722643,-36.67758588,154.51
145.02723638,-36.67758604,154.78
145.02724466,-36.67758618,155.87
145.02724913,-36.67758626,137.92
145.02725070,-36.67758628,151.04
145.02731132,-36.67758729,137.94
145.02731468,-36.67758734,137.89
145.02739600,-36.67758869,137.93
145.02751176,-36.67759061,138.01
145.02751657,-36.67759069,151.00
145.02758715,-36.67759186,138.00
145.02759051,-36.67759191,137.97
145.02763458,-36.67759264,138.01
145.02763592,-36.67759266,156.37
145.02763905,-36.67759272,156.45
145.02765751,-36.67759302,157.13
145.02767283,-36.67759328,157.59
145.02779072,-36.67759523,138.08
145.02784486,-36.67759613,145.33
145.02786947,-36.67759653,149.44
145.02787159,-36.67759657,150.33
145.02787920,-36.67759670,138.10
145.02788222,-36.67759675,151.34
145.02794642,-36.67759781,138.09
145.02795962,-36.67759803,138.06
145.02801566,-36.67759896,150.09
145.02804250,-36.67759940,152.96
145.02805302,-36.67759957,150.36
145.02806767,-36.67759982,152.91
145.02807382,-36.67759992,138.08
145.02809754,-36.67760031,138.03
145.02818232,-36.67760172,138.07
145.02822471,-36.67760242,138.11
145.02822784,-36.67760247,138.05
145.02832907,-36.67760415,138.03
145.02833209,-36.67760420,138.05
145.02834048,-36.67760434,151.01
145.02834383,-36.67760439,147.37
145.02840535,-36.67760541,138.06
145.02842761,-36.67760578,154.71
145.02847448,-36.67760656,137.96
145.02847750,-36.67760661,137.97
145.02853622,-36.67760758,138.01
145.02854472,-36.67760772,152.46
145.02855177,-36.67760784,150.52
145.02856463,-36.67760805,147.86
145.02857358,-36.67760820,153.67
145.02857772,-36.67760827,151.56
145.02858096,-36.67760832,153.32
145.02858365,-36.67760836,153.23
145.02859226,-36.67760851,137.95
145.02866720,-36.67760975,137.93
145.02869740,-36.67761025,137.95
145.02875266,-36.67761116,137.93
145.02879661,-36.67761189,150.36
145.02881585,-36.67761221,141.07
145.02884471,-36.67761269,137.92
145.02884952,-36.67761277,137.88
145.02885534,-36.67761286,151.13
145.02889795,-36.67761357,150.77
145.02891988,-36.67761393,145.60
145.02892815,-36.67761407,146.83
145.02893654,-36.67761421,137.90
145.02893967,-36.67761426,137.86
145.02895914,-36.67761458,138.18
145.02898263,-36.67761497,137.84
145.02898565,-36.67761502,137.86
145.02898855,-36.67761507,137.86
145.02900142,-36.67761528,137.87
145.02903363,-36.67761582,137.84
145.02904437,-36.67761599,151.00
145.02904795,-36.67761605,148.51
145.02909918,-36.67761690,137.82
145.02910152,-36.67761694,156.42
145.02910443,-36.67761699,156.36
145.02911092,-36.67761709,159.71
145.02911349,-36.67761714,159.90
145.02911405,-36.67761715,155.28
145.02911707,-36.67761720,160.05
145.02914425,-36.67761765,148.82
145.02916864,-36.67761805,154.06
145.02916875,-36.67761805,137.85
145.02918530,-36.67761833,154.14
145.02921483,-36.67761882,144.04
145.02926237,-36.67761960,137.75
145.02926617,-36.67761967,142.67
145.02926886,-36.67761971,137.78
145.02926930,-36.67761972,142.61
145.02927065,-36.67761974,142.27
145.02934022,-36.67762089,144.76
145.02934313,-36.67762094,140.36
145.02935990,-36.67762122,155.85
145.02936550,-36.67762131,137.78
145.02940632,-36.67762199,156.43
145.02950800,-36.67762367,149.26
145.02951862,-36.67762384,146.41
145.02952142,-36.67762389,146.56
145.02953026,-36.67762404,137.80
145.02953048,-36.67762404,146.22
145.02953663,-36.67762414,146.09
145.02953965,-36.67762419,145.97
145.02954334,-36.67762425,147.26
145.02957556,-36.67762479,137.84
145.02959233,-36.67762506,143.23
145.02961795,-36.67762549,137.78
145.02963383,-36.67762575,137.82
145.02971492,-36.67762709,158.22
145.02971750,-36.67762714,158.36
145.02972029,-36.67762718,158.31
145.02972410,-36.67762725,158.61
145.02972734,-36.67762730,152.42
145.02973092,-36.67762736,137.81
145.02975161,-36.67762770,138.68
145.02975363,-36.67762773,143.87
145.02975508,-36.67762776,142.45
145.02976794,-36.67762797,154.04
145.02977231,-36.67762804,137.84
145.02977533,-36.67762809,137.83
145.02977823,-36.67762814,137.86
145.02978125,-36.67762819,137.79
145.02978416,-36.67762824,137.81
145.02978439,-36.67762824,137.83
145.02978707,-36.67762829,137.81
145.02983595,-36.67762910,137.83
145.02984803,-36.67762930,157.32
145.02985653,-36.67762944,157.24
145.02988908,-36.67762998,151.72
145.02990082,-36.67763017,154.19
145.02991671,-36.67763043,137.81
145.02995295,-36.67763103,137.82
145.03006491,-36.67763289,138.03
145.03007319,-36.67763302,137.74
145.03007543,-36.67763306,137.76
145.03013247,-36.67763400,145.58
145.03019455,-36.67763503,145.25
145.03022207,-36.67763549,137.79
145.03023549,-36.67763571,143.58
145.03037687,-36.67763805,137.77
145.03040651,-36.67763854,137.76
145.03047418,-36.67763966,137.76
145.03048626,-36.67763986,137.72
145.03050763,-36.67764021,137.70
145.03051076,-36.67764026,137.71
145.03051400,-36.67764032,137.70
145.03051724,-36.67764037,137.69
145.03052049,-36.67764042,137.68
145.03056031,-36.67764108,137.75
145.03059576,-36.67764167,137.71
145.03059867,-36.67764172,137.67
145.03063290,-36.67764228,148.97
145.03064397,-36.67764247,148.27
145.03066332,-36.67764279,151.15
145.03067037,-36.67764290,152.05
145.03067048,-36.67764291,137.66
145.03067876,-36.67764304,150.08
145.03068715,-36.67764318,150.44
145.03073771,-36.67764402,152.68
145.03074576,-36.67764415,137.61
145.03082764,-36.67764551,137.69
145.03084732,-36.67764583,140.10
145.03085213,-36.67764591,145.28
145.03091287,-36.67764692,137.50
145.03091868,-36.67764701,148.12
145.03092663,-36.67764714,137.48
145.03100526,-36.67764844,137.45
145.03102987,-36.67764885,150.28
145.03103400,-36.67764892,137.44
145.03106857,-36.67764949,141.22
145.03107573,-36.67764961,140.30
145.03108031,-36.67764968,137.37
145.03110447,-36.67765008,149.16
145.03114328,-36.67765073,154.87
145.03115302,-36.67765089,146.94
145.03115436,-36.67765091,157.99
145.03116140,-36.67765103,158.30
145.03116241,-36.67765104,137.36
145.03116532,-36.67765109,137.33
145.03120145,-36.67765169,137.24
145.03131722,-36.67765360,137.18
145.03134070,-36.67765399,137.21
145.03141039,-36.67765514,137.05
145.03141151,-36.67765516,145.67
145.03151821,-36.67765693,145.50
145.03151900,-36.67765694,137.03
145.03159114,-36.67765813,155.25
145.03159483,-36.67765819,155.01
145.03159785,-36.67765824,154.99
145.03163197,-36.67765881,136.92
145.03165602,-36.67765921,143.47
145.03167548,-36.67765953,146.10
145.03170467,-36.67766001,136.86
145.03170915,-36.67766008,150.70
145.03171228,-36.67766014,150.64
145.03172179,-36.67766029,149.83
145.03176396,-36.67766099,136.76
145.03176731,-36.67766105,136.75
145.03178599,-36.67766135,136.73
145.03179997,-36.67766159,151.30
145.03185892,-36.67766256,136.65
145.03191921,-36.67766356,136.65
145.03199225,-36.67766476,136.58
145.03208240,-36.67766626,136.42
145.03209292,-36.67766643,136.40
145.03211406,-36.67766678,150.19
145.03212547,-36.67766697,147.37
145.03217188,-36.67766773,136.31
145.03217479,-36.67766778,136.32
145.03218598,-36.67766797,136.30
145.03219716,-36.67766815,150.38
145.03224235,-36.67766890,146.02
145.03226517,-36.67766928,136.23
145.03231327,-36.67767007,136.18
145.03233910,-36.67767050,137.81
145.03238228,-36.67767121,136.14
145.03242724,-36.67767196,136.08
145.03243172,-36.67767203,154.89
145.03244402,-36.67767223,152.94
145.03244783,-36.67767230,153.16
145.03244973,-36.67767233,151.04
145.03245241,-36.67767237,151.13
145.03248697,-36.67767294,152.54
145.03249044,-36.67767300,136.03
145.03257914,-36.67767447,152.52
145.03258406,-36.67767455,153.91
145.03258451,-36.67767455,152.70
145.03262377,-36.67767520,141.31
145.03263742,-36.67767543,141.90
145.03265911,-36.67767579,135.82
145.03269748,-36.67767642,135.76
145.03278014,-36.67767779,135.69
145.03281101,-36.67767830,135.69
145.03281392,-36.67767835,135.66
145.03289345,-36.67767966,135.62
145.03289580,-36.67767970,135.71
145.03291559,-36.67768003,149.88
145.03296425,-36.67768083,135.62
145.03297588,-36.67768102,135.64
145.03297711,-36.67768104,141.13
145.03297890,-36.67768107,135.66
145.03301179,-36.67768162,152.71
145.03304836,-36.67768222,135.61
145.03309053,-36.67768292,135.55
145.03315127,-36.67768392,147.66
145.03316066,-36.67768408,135.52
145.03316391,-36.67768413,135.55
145.03317230,-36.67768427,149.02
145.03318124,-36.67768442,149.59
145.03319500,-36.67768464,135.55
145.03321167,-36.67768492,147.93
145.03323505,-36.67768530,145.72
145.03328158,-36.67768607,135.49
145.03330238,-36.67768642,157.42
145.03330809,-36.67768651,157.82
145.03334835,-36.67768718,135.53
145.03338169,-36.67768773,147.67
145.03339880,-36.67768801,148.84
145.03344992,-36.67768885,135.53
145.03349511,-36.67768960,145.03
145.03354108,-36.67769036,141.43
145.03355964,-36.67769067,135.45
145.03356255,-36.67769072,135.49
145.03363145,-36.67769185,147.29
145.03364667,-36.67769210,135.45
145.03371568,-36.67769324,139.87
145.03372015,-36.67769332,135.44
145.03372396,-36.67769338,140.36
145.03373123,-36.67769350,150.93
145.03373436,-36.67769355,150.92
145.03383201,-36.67769517,135.40
145.03388838,-36.67769610,135.43
145.03389162,-36.67769615,135.43
145.03389476,-36.67769620,135.41
145.03389800,-36.67769626,135.41
145.03393793,-36.67769692,135.39
145.03401466,-36.67769818,135.52
145.03404139,-36.67769862,148.99
145.03405392,-36.67769883,149.87
145.03407629,-36.67769920,151.39
145.03408345,-36.67769932,135.54
145.03415839,-36.67770056,151.44
145.03417718,-36.67770087,135.42
145.03421096,-36.67770142,143.66
145.03421577,-36.67770150,148.52
145.03423445,-36.67770181,147.01
145.03425861,-36.67770221,135.40
145.03432024,-36.67770323,151.11
145.03432103,-36.67770324,155.61
145.03432561,-36.67770332,151.26
145.03432763,-36.67770335,151.56
145.03435839,-36.67770386,153.94
145.03436543,-36.67770398,135.34
145.03443266,-36.67770509,139.68
145.03443501,-36.67770512,135.49
145.03444082,-36.67770522,135.40
145.03444944,-36.67770536,153.45
145.03445190,-36.67770540,153.59
145.03445279,-36.67770542,135.31
145.03445391,-36.67770544,135.27
145.03445581,-36.67770547,135.32
145.03445872,-36.67770552,135.31
145.03446174,-36.67770557,135.31
145.03446476,-36.67770562,135.29
145.03446789,-36.67770567,135.33
145.03447069,-36.67770571,135.29
145.03447348,-36.67770576,146.01
145.03454966,-36.67770702,135.25
145.03456330,-36.67770724,157.33
145.03458634,-36.67770762,148.01
145.03462393,-36.67770824,151.85
145.03477996,-36.67771082,150.67
145.03479260,-36.67771103,146.43
145.03485406,-36.67770997,135.21
145.03485503,-36.67770692,149.19
145.03485608,-36.67767476,152.87
145.03485611,-36.67767323,135.27
145.03485635,-36.67766404,135.26
145.03485667,-36.67765152,147.57
145.03485764,-36.67761323,135.26
145.03485803,-36.67759809,152.52
145.03485906,-36.67755737,155.93
145.03485952,-36.67753953,135.30
145.03486017,-36.67751367,135.30
145.03486062,-36.67749628,135.32
145.03486105,-36.67747943,135.34
145.03486285,-36.67740844,151.86
145.03486494,-36.67732636,152.77
145.03486499,-36.67732447,152.85
145.03486534,-36.67731086,135.42
145.03486780,-36.67721410,135.44
145.03486876,-36.67717626,135.46
145.03486919,-36.67715941,135.51
145.03487153,-36.67706733,135.53
145.03487229,-36.67703742,135.55
145.03487300,-36.67700976,135.55
145.03487365,-36.67698399,135.62
145.03487495,-36.67693309,151.60
145.03487724,-36.67684290,135.70
145.03487819,-36.67680578,135.68
145.03487995,-36.67673632,135.74
145.03488070,-36.67670677,135.81
145.03488324,-36.67660721,149.52
145.03488347,-36.67659820,153.70
145.03488353,-36.67659568,135.82
145.03488625,-36.67648892,145.08
145.03488628,-36.67648748,147.40
145.03488929,-36.67636918,135.94
145.03488932,-36.67636819,137.42
145.03489030,-36.67632972,136.07
145.03489072,-36.67631314,135.99
145.03489160,-36.67627836,153.34
145.03489238,-36.67624782,152.46
145.03489258,-36.67623998,152.49
145.03489275,-36.67623349,145.25
145.03489289,-36.67622764,152.75
145.03489315,-36.67621773,154.13
145.03489318,-36.67621638,155.89
145.03489320,-36.67621557,156.96
145.03489336,-36.67620926,148.93
145.03489574,-36.67611583,136.03
145.03489654,-36.67608430,136.11
145.03489812,-36.67602222,154.68
145.03489827,-36.67601654,153.31
145.03489926,-36.67597735,155.27
145.03489978,-36.67595708,136.11
145.03490142,-36.67589266,136.16
145.03490301,-36.67583013,157.04
145.03490308,-36.67582734,156.65
145.03490312,-36.67582581,158.64
145.03490364,-36.67580518,136.28
145.03490373,-36.67580166,154.58
145.03490415,-36.67578536,156.45
145.03490454,-36.67577004,136.31
145.03490545,-36.67573400,153.44
145.03490574,-36.67572283,153.04
145.03490607,-36.67570977,146.70
145.03490660,-36.67568913,149.16
145.03490661,-36.67568841,150.06
145.03490676,-36.67568283,136.31
145.03490779,-36.67564237,136.39
145.03490841,-36.67561796,136.37
145.03491154,-36.67549462,146.11
145.03491176,-36.67548615,136.31
145.03491201,-36.67547651,136.29
145.03491221,-36.67546849,136.30
145.03491344,-36.67542029,145.99
145.03491346,-36.67541921,151.86
145.03491355,-36.67541587,148.39
145.03491372,-36.67540930,146.90
145.03491411,-36.67539371,136.31
145.03491493,-36.67536173,150.26
145.03491552,-36.67533839,143.47
145.03491707,-36.67527749,158.74
145.03491758,-36.67525739,136.44
145.03491788,-36.67524541,152.91
145.03491794,-36.67524334,136.38
145.03491889,-36.67520586,136.52
145.03491925,-36.67519171,146.69
145.03491938,-36.67518676,136.49
145.03491987,-36.67516730,153.98
145.03492031,-36.67515027,148.88
145.03492032,-36.67514982,153.46
145.03492058,-36.67513955,152.17
145.03492085,-36.67512874,152.12
145.03492097,-36.67512423,149.53
145.03492108,-36.67511973,136.48
145.03492124,-36.67511342,149.13
145.03492135,-36.67510919,136.61
145.03492187,-36.67508891,136.48
145.03492328,-36.67503323,136.48
145.03492378,-36.67501350,136.51
145.03492424,-36.67499566,136.51
145.03492605,-36.67492431,136.54
145.03492634,-36.67491314,155.69
145.03492656,-36.67490431,151.09
145.03492679,-36.67489548,156.77
145.03492723,-36.67487791,156.25
145.03492729,-36.67487575,155.60
145.03492740,-36.67487133,152.70
145.03492761,-36.67486313,136.58
145.03492796,-36.67484944,154.78
145.03492840,-36.67483223,136.58
145.03492883,-36.67481538,136.63
145.03492987,-36.67477448,136.67
145.03493023,-36.67476033,157.47
145.03493045,-36.67475141,159.13
145.03493048,-36.67475024,157.51
145.03493080,-36.67473781,136.66
145.03493099,-36.67473033,159.07
145.03493113,-36.67472493,158.98
145.03493158,-36.67470727,136.63
145.03493210,-36.67468682,136.67
145.03493222,-36.67468177,136.68
145.03493270,-36.67466294,136.68
145.03493430,-36.67460005,136.69
145.03493442,-36.67459555,136.67
145.03493450,-36.67459212,136.68
145.03493456,-36.67459014,136.69
145.03493459,-36.67458879,136.67
145.03493512,-36.67456798,136.72
145.03493532,-36.67456005,136.69
145.03493552,-36.67455221,136.69
145.03493576,-36.67454266,136.76
145.03493656,-36.67451140,136.71
145.03493727,-36.67448347,136.76
145.03493744,-36.67447662,136.74
145.03493794,-36.67445716,152.09
145.03493796,-36.67445617,136.82
145.03493871,-36.67442680,136.76
145.03493871,-36.67442662,136.73
145.03493923,-36.67440653,136.77
145.03494033,-36.67436301,136.82
145.03494039,-36.67436067,136.81
145.03494091,-36.67434022,136.80
145.03494094,-36.67433931,155.47
145.03494130,-36.67432508,151.78
145.03494153,-36.67431580,136.85
145.03494209,-36.67429391,136.82
145.03494262,-36.67427318,156.72
145.03494310,-36.67425408,158.58
145.03494407,-36.67421624,136.85
145.03494424,-36.67420931,136.80
145.03494442,-36.67420219,136.79
145.03494445,-36.67420129,136.83
145.03494472,-36.67419066,136.86
145.03494614,-36.67413480,136.88
145.03494658,-36.67411759,136.82
145.03494668,-36.67411335,136.87
145.03494685,-36.67410678,153.35
145.03494722,-36.67409227,136.89
145.03494724,-36.67409164,156.12
145.03494825,-36.67405191,136.91
145.03494841,-36.67404569,155.80
145.03494848,-36.67404263,143.51
145.03494859,-36.67403866,144.17
145.03494860,-36.67403803,136.88
145.03494863,-36.67403677,143.32
145.03494883,-36.67402911,159.09
145.03495055,-36.67396145,152.36
145.03495065,-36.67395767,136.95
145.03495172,-36.67391559,137.01
145.03495192,-36.67390739,147.17
145.03495393,-36.67382856,136.94
145.03495415,-36.67381982,136.99
145.03495481,-36.67379414,136.99
145.03495506,-36.67378423,148.88
145.03495517,-36.67377964,145.22
145.03495521,-36.67377829,145.09
145.03495545,-36.67376892,146.05
145.03495566,-36.67376036,139.28
145.03495577,-36.67375603,137.04
145.03495654,-36.67372594,137.01
145.03495688,-36.67371270,149.52
145.03495710,-36.67370378,148.14
145.03495740,-36.67369197,136.95
145.03495780,-36.67367639,136.97
145.03495808,-36.67366531,154.94
145.03495811,-36.67366440,155.00
145.03495829,-36.67365702,155.61
145.03495841,-36.67365233,155.52
145.03495848,-36.67364972,153.89
145.03495878,-36.67363774,137.02
145.03495941,-36.67361305,137.05
145.03495942,-36.67361260,153.63
145.03495978,-36.67359872,152.85
145.03496060,-36.67356638,137.05
145.03496087,-36.67355584,137.06
145.03496170,-36.67352322,154.91
145.03496179,-36.67351953,157.31
145.03496195,-36.67351331,137.15
145.03496201,-36.67351097,150.65
145.03496257,-36.67348890,136.95
145.03496301,-36.67347142,136.96
145.03496310,-36.67346818,136.95
145.03496422,-36.67342412,136.98
145.03496437,-36.67341817,136.88
145.03496463,-36.67340808,136.91
145.03496466,-36.67340673,155.64
145.03496546,-36.67337547,137.01
145.03496551,-36.67337321,137.02
145.03496631,-36.67334204,156.48
145.03496711,-36.67331051,137.13
145.03496716,-36.67330853,150.15
145.03496721,-36.67330654,151.61
145.03496838,-36.67326032,153.21
145.03496928,-36.67322528,137.14
145.03496970,-36.67320870,137.13
145.03496995,-36.67319888,137.11
145.03497027,-36.67318635,137.11
145.03497078,-36.67316635,147.56
145.03497087,-36.67316275,137.14
145.03497227,-36.67310743,137.15
145.03497260,-36.67309455,146.09
145.03497312,-36.67307437,151.87
145.03497550,-36.67298076,147.30
145.03497588,-36.67296553,137.22
145.03497843,-36.67286561,137.28
145.03498108,-36.67276119,152.45
145.03498150,-36.67274479,137.32
145.03498259,-36.67270200,137.31
145.03498481,-36.67261479,158.45
145.03498830,-36.67247730,151.71
145.03498879,-36.67245820,137.38
145.03498918,-36.67244270,137.43
145.03499113,-36.67236630,137.40
145.03499267,-36.67230558,153.10
145.03499305,-36.67229062,137.41
145.03499334,-36.67227936,137.42
145.03499525,-36.67220422,137.41
145.03499635,-36.67216079,137.41
145.03499771,-36.67210736,137.36
145.03499861,-36.67207205,157.68
145.03499926,-36.67204646,156.30
145.03499940,-36.67204096,156.04
145.03500119,-36.67197060,137.47
145.03500227,-36.67192834,137.39
145.03500370,-36.67187221,157.22
145.03500387,-36.67186519,156.13
145.03500397,-36.67186149,156.56
145.03500830,-36.67169103,137.51
145.03500956,-36.67164157,143.56
145.03501069,-36.67159733,150.75
145.03501132,-36.67157246,137.55
145.03501142,-36.67156859,151.83
145.03501155,-36.67156345,137.59
145.03501276,-36.67151597,137.54
145.03501289,-36.67151057,144.74
145.03501506,-36.67142561,156.34
145.03501514,-36.67142245,137.63
145.03502044,-36.67121388,152.10
145.03502155,-36.67117036,150.00
145.03502238,-36.67113757,137.64
145.03502262,-36.67112829,137.66
145.03502488,-36.67103936,137.70
145.03502578,-36.67100405,149.51
145.03502744,-36.67093864,159.20
145.03502758,-36.67093305,149.92
145.03502763,-36.67093134,156.96
145.03502783,-36.67092323,137.85
145.03502874,-36.67088755,140.21
145.03502892,-36.67088071,149.83
145.03502946,-36.67085935,137.71
145.03502964,-36.67085214,137.69
145.03502988,-36.67084277,137.74
145.03503224,-36.67074980,159.65
145.03503384,-36.67068700,137.68
145.03503507,-36.67063880,137.71
145.03504017,-36.67043833,137.65
145.03504230,-36.67035463,137.59
145.03504294,-36.67032914,137.59
145.03504566,-36.67022237,137.61
145.03504579,-36.67021742,137.62
145.03504652,-36.67018850,137.50
145.03504779,-36.67013858,137.58
145.03504918,-36.67008417,137.54
145.03505404,-36.66989298,145.20
145.03505422,-36.66988586,152.15
145.03505484,-36.66986154,137.59
145.03505484,-36.66986145,153.75
145.03505581,-36.66982334,149.55
145.03505726,-36.66976649,137.51
145.03505872,-36.66970873,137.54
145.03505992,-36.66966188,137.57
145.03506006,-36.66965639,137.56
145.03506110,-36.66961531,137.55
145.03506213,-36.66957503,149.74
145.03506325,-36.66953088,155.78
145.03506536,-36.66944773,137.64
145.03506604,-36.66942097,150.81
145.03506701,-36.66938313,137.72
145.03506932,-36.66929231,137.79
145.03507177,-36.66919591,137.87
145.03507473,-36.66907932,137.97
145.03507876,-36.66892111,156.61
145.03507909,-36.66890814,138.12
145.03507943,-36.66889472,138.13
145.03508118,-36.66882597,138.20
145.03508299,-36.66875038,138.36
145.03508393,-36.66870875,138.36
145.03508207,-36.66870286,138.37
145.03506608,-36.66870242,138.37
145.03497863,-36.66870080,138.35
145.03487137,-36.66869903,153.58
145.03486813,-36.66869897,138.35
145.03479174,-36.66869771,146.97
145.03478839,-36.66869766,138.38
145.03478794,-36.66869765,159.64
145.03478235,-36.66869756,159.53
145.03477765,-36.66869748,146.86
145.03472587,-36.66869662,159.20
145.03470495,-36.66869628,138.35
145.03463796,-36.66869517,157.67
145.03463550,-36.66869513,138.40
145.03453283,-36.66869344,138.43
145.03446450,-36.66869231,138.45
145.03438744,-36.66869104,155.83
145.03438341,-36.66869097,138.51
     </coordinates>
    </LineString>
   </MultiGeometry>
  </Placemark>
 </Document>
</kml>
